GLOBALSTAR M063         
1 26081U 00008A   24166.49274234 -.00000102  00000+0 -28986-3 0  9999
2 26081  51.9978 359.9352 0004191 339.1857  55.9092 11.86155591113945
GLOBALSTAR M062         
1 26082U 00008B   24166.55641183 -.00000041  00000+0  40883-3 0  9999
2 26082  51.9848  96.8483 0007569  46.4736 124.1391 12.43438354450883
GLOBALSTAR M060         
1 26083U 00008C   24166.55462894 -.00000182  00000+0 -90593-3 0  9990
2 26083  52.0046   4.8524 0004181  96.3584 310.0904 12.17633128107582
GLOBALSTAR M064         
1 26084U 00008D   24166.54233264 -.00000103  00000+0 -28061-3 0  9991
2 26084  52.0029 102.9661 0001799  56.7409 303.3596 11.88519754123387
GLOBALSTAR M065         
1 31571U 07020A   24166.58163655 -.00000094  00000+0  55868-4 0  9993
2 31571  51.9899 265.1080 0010036 210.9221 253.1115 12.61971453786995
GLOBALSTAR M069         
1 31573U 07020C   24166.47759550 -.00000076  00000+0  15315-3 0  9990
2 31573  51.9936 221.2545 0000582 211.5339 162.5895 12.62275454788113
GLOBALSTAR M072         
1 31574U 07020D   24166.56588108 -.00000074  00000+0  16475-3 0  9996
2 31574  52.0100 316.9199 0001033 125.0751 309.9364 12.62273323786394
GLOBALSTAR M071         
1 31576U 07020F   24166.53381428 -.00000076  00000+0  15530-3 0  9994
2 31576  52.0052 226.2479 0000159 147.3647   1.3691 12.62268396449302
